SPACEBEE-7              
1 43816U 18099BL  23001.21664861  .00005889  00000+0  48720-3 0  9992
2 43816  97.6078  69.7173 0011466 318.6981  41.3374 14.99226462222269
SPACEBEE-5              
1 43817U 18099BM  23001.19243451  .00018942  00000+0  13118-2 0  9994
2 43817  97.6162  74.2083 0003925 313.8720  46.2182 15.05694062222471
SPACEBEE-6              
1 43818U 18099BN  23001.13174263  .00009655  00000+0  75859-3 0  9995
2 43818  97.6122  70.9929 0015686 326.4515  33.5714 15.00997465222466
SPACEBEE-21             
1 46300U 20061AE  23001.16506427  .00044439  00000+0  15756-2 0  9998
2 46300  97.4306  76.4669 0000563 132.7365 227.3923 15.28946901128625
SPACEBEE-20             
1 46301U 20061AF  23001.16841105  .00045170  00000+0  16027-2 0  9999
2 46301  97.4336  76.6123 0000637 147.5701 212.5578 15.28918617128621
SPACEBEE-15             
1 46302U 20061AG  23001.44665501  .00056920  00000+0  18511-2 0  9990
2 46302  97.4303  77.4792 0000603 120.5651 239.5649 15.31686483128710
SPACEBEE-19             
1 46303U 20061AH  23001.17238418  .00050353  00000+0  17329-2 0  9994
2 46303  97.4305  76.7983 0000706 146.3940 213.7346 15.29886921128644
SPACEBEE-18             
1 46304U 20061AJ  23001.57813262  .00048625  00000+0  16658-2 0  9998
2 46304  97.4304  77.1516 0000617 124.9597 235.1701 15.30045357128704
SPACEBEE-10             
1 46305U 20061AK  23001.46629283  .00085162  00000+0  22911-2 0  9991
2 46305  97.4304  78.8928 0000077 329.3018  30.8222 15.37549215128807
SPACEBEE-17             
1 46306U 20061AL  23001.16256641  .00053607  00000+0  17674-2 0  9992
2 46306  97.4307  77.1211 0000511 141.3775 218.7503 15.31261602128706
SPACEBEE-11             
1 46307U 20061AM  23001.43578068  .00074431  00000+0  21719-2 0  9996
2 46307  97.4303  78.3009 0000353 117.9831 242.1448 15.35056624128762
SPACEBEE-16             
1 46308U 20061AN  23001.46018885  .00056308  00000+0  18369-2 0  9996
2 46308  97.4311  77.5075 0000484 180.5895 179.5346 15.31589185128711
SPACEBEE-12             
1 46309U 20061AP  23001.15550793  .00062584  00000+0  19012-2 0  9991
2 46309  97.4305  77.7456 0000400 129.5698 230.5580 15.33839120128708
SPACEBEE-13             
1 46310U 20061AQ  23001.44184620  .00063296  00000+0  19739-2 0  9994
2 46310  97.4303  77.8209 0000546 122.6993 237.4302 15.33000508128773
SPACEBEE-14             
1 46311U 20061AR  23001.48428727  .00064716  00000+0  20438-2 0  9994
2 46311  97.4308  77.7730 0000508 123.3154 236.8136 15.32589885128768
SPACEBEENZ-3            
1 46938U 20085K   23001.37326491  .00092677  00000+0  16463-2 0  9998
2 46938  97.4511 148.0741 0008171  81.5614 278.6563 15.49831690117929
SPACEBEENZ-4            
1 46939U 20085L   23001.34063701  .00080327  00000+0  15204-2 0  9999
2 46939  97.4520 147.6676 0008641  83.6492 276.5742 15.48057100117898
SPACEBEENZ-5            
1 46941U 20085N   23001.57504487  .00073102  00000+0  14419-2 0  9998
2 46941  97.4531 147.6873 0008969  83.8991 276.3280 15.46888916117914
SPACEBEENZ-6            
1 46942U 20085P   23001.34937345  .00070122  00000+0  14341-2 0  9990
2 46942  97.4554 147.2872 0009089  86.0553 274.1735 15.45843724117860
SPACEBEENZ-2            
1 46957U 20085AE  23001.34841379  .00099963  00000+0  16684-2 0  9993
2 46957  97.4494 148.3910 0007953  79.2853 280.9294 15.51570234117909
SPACEBEENZ-1            
1 46959U 20085AG  23001.33970438  .00114796  00000+0  17502-2 0  9995
2 46959  97.4487 148.8633 0006965  75.2397 284.9628 15.54045484117453
SPACEBEE-52             
1 47425U 21006N   23001.11878794  .00127251  00000+0  25148-2 0  9991
2 47425  97.4170  69.1012 0006601 289.4879  70.5657 15.46637176108691
SPACEBEE-46             
1 47426U 21006P   23001.39564029  .00078158  00000+0  20569-2 0  9998
2 47426  97.4181  67.7639 0007829 295.1955  64.8477 15.38234532108635
SPACEBEE-47             
1 47427U 21006Q   23001.17565791  .00067690  00000+0  18463-2 0  9991
2 47427  97.4190  67.2984 0007782 297.1177  62.9274 15.37173649107622
SPACEBEE-59             
1 47428U 21006R   23001.60487999  .00062391  00000+0  17594-2 0  9990
2 47428  97.4187  67.4973 0007802 296.7926  63.2520 15.36159300108636
SPACEBEE-62             
1 47429U 21006S   23001.42901345  .00016617  00000+0  72856-3 0  9990
2 47429  97.4155  63.3160 0010678 307.1277  52.8983 15.22007849107402
SPACEBEE-61             
1 47431U 21006U   23001.15923618  .00046899  00000+0  16414-2 0  9992
2 47431  97.4229  63.8858 0003677 324.1409  35.9584 15.29352352108334
SPACEBEE-49             
1 47432U 21006V   23001.41983384  .00045859  00000+0  16172-2 0  9994
2 47432  97.4240  64.0454 0003461 323.2464  36.8538 15.29110934108365
SPACEBEE-60             
1 47433U 21006W   23001.44621816  .00048198  00000+0  16770-2 0  9990
2 47433  97.4243  64.1833 0003277 325.5976  34.5052 15.29537931108376
SPACEBEE-53             
1 47434U 21006X   23001.40566299  .00075017  00000+0  21919-2 0  9991
2 47434  97.4240  65.3778 0002980 319.0423  41.0596 15.35009329108446
SPACEBEE-63             
1 47442U 21006AF  23001.40537330  .00013301  00000+0  64704-3 0  9992
2 47442  97.4193  60.8552 0004886 337.5510  22.5509 15.18512933107214
SPACEBEE-50             
1 47443U 21006AG  23001.43925713  .00044423  00000+0  15717-2 0  9990
2 47443  97.4235  64.1174 0003760 322.2437  37.8539 15.29010758107412
SPACEBEE-51             
1 47444U 21006AH  23001.40923693  .00077498  00000+0  21740-2 0  9994
2 47444  97.4151  64.9996 0003266 316.5124  43.5862 15.36276831107518
SPACEBEE-48             
1 47447U 21006AL  23001.42889139  .00093108  00000+0  22678-2 0  9992
2 47447  97.4127  66.8078 0005535 295.6802  64.3872 15.40556525107649
SPACEBEE-40             
1 47449U 21006AN  23001.14114225  .00068801  00000+0  19193-2 0  9990
2 47449  97.4134  65.6776 0006206 300.5703  59.4928 15.36478060107541
SPACEBEE-41             
1 47451U 21006AQ  23001.43125436  .00072239  00000+0  20294-2 0  9995
2 47451  97.4149  65.9550 0006157 299.9796  60.0836 15.36243464107589
SPACEBEE-42             
1 47455U 21006AU  23001.43380815  .00069800  00000+0  19949-2 0  9998
2 47455  97.4148  65.8235 0006146 300.3799  59.6837 15.35715760107575
SPACEBEE-55             
1 47459U 21006AY  23001.41920073  .00015174  00000+0  69885-3 0  9996
2 47459  97.4115  61.6087 0009408 322.6134  37.4445 15.20350894107314
SPACEBEE-54             
1 47460U 21006AZ  23001.44617318  .00073778  00000+0  21119-2 0  9997
2 47460  97.4150  65.8497 0005970 303.6541  56.4133 15.35649147107578
SPACEBEE-58             
1 47464U 21006BD  23001.42839820  .00069728  00000+0  18973-2 0  9997
2 47464  97.4184  67.5763 0007617 296.2320  63.8141 15.37240594107662
SPACEBEE-57             
1 47465U 21006BE  23001.41877824  .00014078  00000+0  68533-3 0  9999
2 47465  97.4136  60.3040 0004534 347.6964  12.4159 15.18474244107219
SPACEBEE-44             
1 47466U 21006BF  23001.13260362  .00053582  00000+0  17366-2 0  9992
2 47466  97.4160  63.8669 0003768 320.1308  39.9656 15.31807913107414
SPACEBEE-56             
1 47468U 21006BH  23001.11424013  .00050259  00000+0  16818-2 0  9996
2 47468  97.4168  63.6309 0003821 321.9102  38.1868 15.30793466107393
SPACEBEE-45             
1 47470U 21006BK  23001.41453552  .00054950  00000+0  18007-2 0  9996
2 47470  97.4165  64.1471 0003925 320.8947  39.2010 15.31445089107453
SPACEBEE-43             
1 47480U 21006BV  23001.43660787  .00060023  00000+0  19183-2 0  9993
2 47480  97.4161  64.2142 0003658 319.9073  40.1899 15.32226261107465
SPACEBEE-87             
1 47703U 21015E   23001.50437783  .00965037  00000+0  33844-2 0  9996
2 47703  97.3827  88.8811 0007675 317.8822  42.1859 15.86939305102910
SPACEBEE-86             
1 47704U 21015F   23001.22968866  .01669852  16334-2  36376-2 0  9997
2 47704  97.3778  89.1711 0007010 318.0533  42.0207 15.98629965102898
SPACEBEE-85             
1 47705U 21015G   23001.48423495  .02564845  69942-2  40200-2 0  9991
2 47705  97.3774  89.6214 0007082 317.9424  42.1313 16.05736391102962
SPACEBEE-84             
1 47706U 21015H   23001.50952611  .08543596  24164-5  27291-2 0  9993
2 47706  97.3662  89.8701 0009035 304.5937  55.4502 16.26224326102985
SPACEBEE-65             
1 48626U 21006ES  23001.56288754  .00067926  00000+0  18092-2 0  9997
2 48626  97.1823  48.5390 0007718 273.4401  86.5962 15.37910466107670
SPACEBEE-64             
1 48627U 21006ET  23001.58331052  .00073425  00000+0  19194-2 0  9995
2 48627  97.1821  48.6613 0007588 271.8474  88.1902 15.38464938107687
SPACEBEE-66             
1 48628U 21006EU  23001.39590548  .00069938  00000+0  19272-2 0  9993
2 48628  97.1827  48.1606 0007944 273.2626  86.7710 15.36844545107632
SPACEBEE-67             
1 48629U 21006EV  23001.56247219  .00062371  00000+0  17442-2 0  9998
2 48629  97.1824  48.2404 0007969 274.3469  85.6865 15.36419101107658
SPACEBEE-68             
1 48630U 21006EW  23001.08321976  .00065674  00000+0  18628-2 0  9996
2 48630  97.1824  47.6786 0008213 275.1912  84.8395 15.35958382107579
SPACEBEE-69             
1 48631U 21006EX  23001.38833207  .00062725  00000+0  18054-2 0  9992
2 48631  97.1828  47.8841 0008334 274.6662  85.3630 15.35511459107611
SPACEBEE-70             
1 48632U 21006EY  23001.10579491  .00059864  00000+0  17441-2 0  9994
2 48632  97.1833  47.5099 0008508 275.8506  84.1768 15.35141872107564
SPACEBEE-71             
1 48633U 21006EZ  23001.35701254  .00059822  00000+0  17678-2 0  9992
2 48633  97.1827  47.6217 0008554 276.1140  83.9129 15.34693933107590
SPACEBEE-72             
1 48634U 21006FA  23001.37673711  .00055897  00000+0  16913-2 0  9990
2 48634  97.1832  47.4560 0009106 275.9963  84.0242 15.33960118107588
SPACEBEE-73             
1 48635U 21006FB  23001.55181312  .00051840  00000+0  15899-2 0  9998
2 48635  97.1830  47.5283 0009197 276.7129  83.3068 15.33549982107606
SPACEBEE-74             
1 48636U 21006FC  23001.33747519  .00053180  00000+0  16815-2 0  9990
2 48636  97.1834  47.0698 0009436 278.2452  81.7720 15.32567710107557
